[{"OBJECT_NAME":"STARLINK-6198","OBJECT_ID":"2023-078B","EPOCH":"2026-03-09T22:24:02.398176","MEAN_MOTION":14.9832689,"ECCENTRICITY":0.00024824,"INCLINATION":70.0012,"RA_OF_ASC_NODE":323.7069,"ARG_OF_PERICENTER":251.903,"MEAN_ANOMALY":108.1859,"EPHEMERIS_TYPE":0,"CLASSIFICATION_TYPE":"U","NORAD_CAT_ID":56768,"ELEMENT_SET_NO":999,"REV_AT_EPOCH":15321,"BSTAR":-7.7001561e-5,"MEAN_MOTION_DOT":-1.011e-5,"MEAN_MOTION_DDOT":0},{"OBJECT_NAME":"ICEYE-X39","OBJECT_ID":"2024-149CG","EPOCH":"2026-03-09T17:17:30.183072","MEAN_MOTION":14.99225125,"ECCENTRICITY":0.0005274,"INCLINATION":97.6853,"RA_OF_ASC_NODE":147.0953,"ARG_OF_PERICENTER":52.5538,"MEAN_ANOMALY":307.6164,"EPHEMERIS_TYPE":0,"CLASSIFICATION_TYPE":"U","NORAD_CAT_ID":60546,"ELEMENT_SET_NO":999,"REV_AT_EPOCH":8521,"BSTAR":0.00029320082,"MEAN_MOTION_DOT":3.515e-5,"MEAN_MOTION_DDOT":0}]
